SL-16 R/B               
1 25400U 98043G   25359.84899212  .00000075  00000+0  50222-4 0  9998
2 25400  98.8146 307.7417 0009028 224.4454 135.6002 14.26028400428460
SL-16 R/B               
1 25407U 98045B   25359.33754009  .00000301  00000+0  17626-3 0  9997
2 25407  71.0121 337.9330 0006203 155.6594 204.4823 14.16178211416574
ISS (ZARYA)             
1 25544U 98067A   25359.88993232  .00013933  00000+0  25321-3 0  9992
2 25544  51.6319  77.3524 0003234 301.5230  58.5443 15.49823805544895
CZ-4B R/B               
1 25732U 99025C   25359.74006828  .00000072  00000+0  55451-4 0  9995
2 25732  98.6751  40.7282 0036870 196.0556 275.0384 14.18246771377687
OKEAN-O                 
1 25860U 99039A   25359.70132450  .00000747  00000+0  10524-3 0  9999
2 25860  97.9585  55.2898 0001141 114.5707 245.5624 14.80182856423443
SL-16 R/B               
1 25861U 99039B   25359.75151185  .00000650  00000+0  89374-4 0  9994
2 25861  98.0108  53.9025 0015811 134.0282 226.2236 14.81604653425912
DELTA 2 R/B             
1 25876U 99041E   25359.88399868  .00001187  00000+0  23059-3 0  9992
2 25876  51.7601 235.9744 0504404 130.5039 234.0988 14.11435353352602
HELIOS 1B               
1 25977U 99064A   25359.72057164  .00002366  00000+0  26851-3 0  9995
2 25977  98.1748 254.7715 0000958  32.0133 328.1140 14.87332823674269
TERRA                   
1 25994U 99068A   25359.95591597  .00000454  00000+0  10182-3 0  9992
2 25994  97.9730  51.1542 0003402  68.1467   8.4255 14.60916109384315
SL-16 R/B               
1 26070U 00006B   25359.82818899  .00000168  00000+0  10940-3 0  9999
2 26070  71.0012 253.1382 0018590 290.9146  68.9987 14.15809154338106
TITAN 4B R/B            
1 26474U 00047B   25359.93480693  .00003592  00000+0  23215-3 0  9994
2 26474  67.9887 247.7953 0038018 128.3372 232.1204 15.08873666381784
ENVISAT                 
1 27386U 02009A   25352.94754304  .00000081  00000+0  39999-4 0  9991
2 27386  98.3609 303.5309 0001126  84.8976 298.2993 14.39001403247569
